NORAD_CAT_ID,OBJECT_NAME,OBJECT_TYPE,EPOCH,MEAN_MOTION,ECCENTRICITY,INCLINATION,RA_OF_ASC_NODE,ARG_OF_PERICENTER,MEAN_ANOMALY,BSTAR,MEAN_MOTION_DOT,MEAN_MOTION_DDOT,TLE_LINE0,TLE_LINE1,TLE_LINE2,SEMIMAJOR_AXIS,PERIOD,APOGEE,PERIGEE,DECAYED
55309.0,STARLINK-5315,PAYLOAD,2023-10-24 12:13:14,14.9832433,0.0002749,70.0021,31.0632,262.5248,97.5598,5.6226e-05,5.78e-06,0.0,0 STARLINK-5315,1 55309U 23010AS  23297.50919410  .00000578  00000-0  56226-4 0  9995,2 55309  70.0021  31.0632 0002749 262.5248  97.5598 14.98324330 43568,6950.21,96.107,573.986,570.165,0.0
55309.0,STARLINK-5315,PAYLOAD,2023-10-25 13:51:23,14.98327506,0.0002372,70.0031,28.3706,250.4492,109.6411,-3.466e-05,-5.06e-06,0.0,0 STARLINK-5315,1 55309U 23010AS  23298.57735523 -.00000506  00000-0 -34660-4 0  9995,2 55309  70.0031  28.3706 0002372 250.4492 109.6411 14.98327506 43713,6950.201,96.107,573.714,570.417,0.0
55309.0,STARLINK-5315,PAYLOAD,2023-10-26 12:17:15,14.98332033,0.0002829,70.0016,26.014,264.1112,95.9724,7.3927e-05,7.89e-06,0.0,0 STARLINK-5315,1 55309U 23010AS  23299.51198767  .00000789  00000-0  73927-4 0  9993,2 55309  70.0016  26.0140 0002829 264.1112  95.9724 14.98332033 43851,6950.187,96.107,574.018,570.085,0.0
55309.0,STARLINK-5315,PAYLOAD,2023-10-26 13:53:23,14.98333852,0.0002708,70.0019,25.8459,262.0172,98.068,9.5995e-05,1.053e-05,0.0,0 STARLINK-5315,1 55309U 23010AS  23299.57874584  .00001053  00000-0  95995-4 0  9991,2 55309  70.0019  25.8459 0002708 262.0172  98.0680 14.98333852 44185,6950.181,96.107,573.928,570.164,0.0
55309.0,STARLINK-5315,PAYLOAD,2023-10-26 15:29:31,14.98335379,0.0002703,70.0018,25.6773,262.2059,97.8794,9.3879e-05,1.028e-05,0.0,0 STARLINK-5315,1 55309U 23010AS  23299.64550505  .00001028  00000-0  93879-4 0  9994,2 55309  70.0018  25.6773 0002703 262.2059  97.8794 14.98335379 44192,6950.176,96.107,573.92,570.163,0.0
55309.0,STARLINK-5315,PAYLOAD,2023-10-27 12:19:15,14.98340708,0.000289,70.0011,23.4884,266.9222,93.1606,9.143e-05,9.98e-06,0.0,0 STARLINK-5315,1 55309U 23010AS  23300.51337847  .00000998  00000-0  91430-4 0  9991,2 55309  70.0011  23.4884 0002890 266.9222  93.1606 14.98340708 44007,6950.16,96.106,574.033,570.016,0.0
55309.0,STARLINK-5315,PAYLOAD,2023-10-27 15:31:31,14.98339806,0.0002787,70.0014,23.1516,266.1819,93.9021,0.00011264,1.252e-05,0.0,0 STARLINK-5315,1 55309U 23010AS  23300.64689774  .00001252  00000-0  11264-3 0  9994,2 55309  70.0014  23.1516 0002787 266.1819  93.9021 14.98339806 44341,6950.163,96.106,573.965,570.091,0.0
55309.0,STARLINK-5315,PAYLOAD,2023-10-27 23:32:12,14.98332066,0.0002592,70.0023,22.3086,269.0911,90.9951,-3.8485e-05,-5.52e-06,0.0,0 STARLINK-5315,1 55309U 23010AS  23300.98070596 -.00000552  00000-0 -38485-4 0  9996,2 55309  70.0023  22.3086 0002592 269.0911  90.9951 14.98332066 44073,6950.187,96.107,573.853,570.25,0.0
55309.0,STARLINK-5315,PAYLOAD,2023-10-28 13:57:26,14.98323795,0.0002782,70.0014,20.7962,271.2398,88.8442,-0.00015924,-1.992e-05,0.0,0 STARLINK-5315,1 55309U 23010AS  23301.58155488 -.00001992  00000-0 -15924-3 0  9998,2 55309  70.0014  20.7962 0002782 271.2398  88.8442 14.98323795 44488,6950.212,96.107,574.011,570.144,0.0
55309.0,STARLINK-5315,PAYLOAD,2023-10-28 15:33:34,14.98324121,0.0002716,70.0016,20.6278,270.5255,89.5593,-0.00014257,-1.793e-05,0.0,0 STARLINK-5315,1 55309U 23010AS  23301.64831458 -.00001793  00000-0 -14257-3 0  9990,2 55309  70.0016  20.6278 0002716 270.5255  89.5593 14.98324121 44186,6950.211,96.107,573.964,570.188,0.0
55309.0,STARLINK-5315,PAYLOAD,2023-10-29 04:22:37,14.98336467,0.0002984,70.0012,19.2809,274.363,85.7188,6.3371e-06,-1.7e-07,0.0,0 STARLINK-5315,1 55309U 23010AS  23302.18238150 -.00000017  00000-0  63371-5 0  9990,2 55309  70.0012  19.2809 0002984 274.3630  85.7188 14.98336467 44254,6950.173,96.107,574.112,569.964,0.0
55309.0,STARLINK-5315,PAYLOAD,2023-10-29 13:59:25,14.98340675,0.0002274,70.0027,18.272,262.9519,97.1381,7.0602e-05,7.5e-06,0.0,0 STARLINK-5315,1 55309U 23010AS  23302.58293512  .00000750  00000-0  70602-4 0  9994,2 55309  70.0027  18.2720 0002274 262.9519  97.1381 14.98340675 44632,6950.16,96.106,573.605,570.444,0.0
55309.0,STARLINK-5315,PAYLOAD,2023-10-29 22:00:05,14.98361939,0.0002851,70.0025,17.4289,273.6745,86.4088,-0.00044027,-5.346e-05,0.0,0 STARLINK-5315,1 55309U 23010AS  23302.91673044 -.00005346  00000-0 -44027-3 0  9992,2 55309  70.0025  17.4289 0002851 273.6745  86.4088 14.98361939 44688,6950.094,96.105,573.941,569.978,0.0
55309.0,STARLINK-5315,PAYLOAD,2023-10-30 12:25:20,14.98313968,0.0002696,70.0019,15.9173,263.2737,96.8115,-3.7797e-06,-1.38e-06,0.0,0 STARLINK-5315,1 55309U 23010AS  23303.51759407 -.00000138  00000-0 -37797-5 0  9999,2 55309  70.0019  15.9173 0002696 263.2737  96.8115 14.98313968 44460,6950.242,96.108,573.981,570.234,0.0
55309.0,STARLINK-5315,PAYLOAD,2023-10-30 22:02:07,14.98348131,0.0002871,70.0015,14.9059,266.8201,93.263,-0.00050616,-6.13e-05,0.0,0 STARLINK-5315,1 55309U 23010AS  23303.91814655 -.00006130  00000-0 -50616-3 0  9991,2 55309  70.0015  14.9059 0002871 266.8201  93.2630 14.98348131 44832,6950.137,96.106,573.997,570.006,0.0
55309.0,STARLINK-5315,PAYLOAD,2023-10-31 14:03:30,14.98309056,0.0003136,70.0015,13.2208,256.7097,103.3712,-0.00038623,-4.696e-05,0.0,0 STARLINK-5315,1 55309U 23010AS  23304.58576624 -.00004696  00000-0 -38623-3 0  9995,2 55309  70.0015  13.2208 0003136 256.7097 103.3712 14.98309056 44934,6950.258,96.108,574.302,569.943,0.0
55309.0,STARLINK-5315,PAYLOAD,2023-10-31 22:04:08,14.98338613,0.0002957,70.0015,12.379,275.3842,84.698,-0.00010973,-1.402e-05,0.0,0 STARLINK-5315,1 55309U 23010AS  23304.91954276 -.00001402  00000-0 -10973-3 0  9995,2 55309  70.0015  12.3790 0002957 275.3842  84.6980 14.98338613 44989,6950.166,96.106,574.086,569.976,0.0
55309.0,STARLINK-5315,PAYLOAD,2023-11-01 04:28:41,14.98322871,0.0002893,70.001,11.7055,273.4928,86.59,0.00015361,1.74e-05,0.0,0 STARLINK-5315,1 55309U 23010AS  23305.18658586  .00001740  00000-0  15361-3 0  9999,2 55309  70.0010  11.7055 0002893 273.4928  86.5900 14.98322871 44717,6950.215,96.107,574.091,570.069,0.0
55309.0,STARLINK-5315,PAYLOAD,2023-11-01 14:05:29,14.98327706,0.0002684,70.0013,10.6954,265.0495,95.0358,0.00018405,2.104e-05,0.0,0 STARLINK-5315,1 55309U 23010AS  23305.58714278  .00002104  00000-0  18405-3 0  9991,2 55309  70.0013  10.6954 0002684 265.0495  95.0358 14.98327706 45085,6950.2,96.107,573.93,570.2,0.0
55309.0,STARLINK-5315,PAYLOAD,2023-11-01 22:06:10,14.98320786,0.0002942,70.0019,9.854,260.3902,99.6925,9.6821e-05,1.062e-05,0.0,0 STARLINK-5315,1 55309U 23010AS  23305.92094956  .00001062  00000-0  96821-4 0  9994,2 55309  70.0019   9.8540 0002942 260.3902  99.6925 14.98320786 45137,6950.221,96.108,574.131,570.042,0.0
55309.0,STARLINK-5315,PAYLOAD,2023-11-02 04:30:42,14.98324624,0.0002943,70.0012,9.1806,270.1805,89.9017,6.1539e-06,-2e-07,0.0,0 STARLINK-5315,1 55309U 23010AS  23306.18799068 -.00000020  00000-0  61539-5 0  9992,2 55309  70.0012   9.1806 0002943 270.1805  89.9017 14.98324624 44868,6950.21,96.107,574.12,570.029,0.0
55309.0,STARLINK-5315,PAYLOAD,2023-11-02 14:07:30,14.98327329,0.0002846,70.0009,8.1713,266.7564,93.327,1.513e-05,8.8e-07,0.0,0 STARLINK-5315,1 55309U 23010AS  23306.58854950  .00000088  00000-0  15130-4 0  9996,2 55309  70.0009   8.1713 0002846 266.7564  93.3270 14.98327329 45232,6950.201,96.107,574.044,570.088,0.0
55309.0,STARLINK-5315,PAYLOAD,2023-11-03 04:32:43,14.98329584,0.0002915,70.0006,6.656,271.3192,88.7633,2.7318e-06,-6e-07,0.0,0 STARLINK-5315,1 55309U 23010AS  23307.18938828 -.00000060  00000-0  27318-5 0  9993,2 55309  70.0006   6.6560 0002915 271.3192  88.7633 14.98329584 45009,6950.194,96.107,574.085,570.033,0.0
55309.0,STARLINK-5315,PAYLOAD,2023-11-03 14:09:31,14.98334252,0.0002932,70.0006,5.6465,271.4048,88.6775,6.8095e-06,-1.2e-07,0.0,0 STARLINK-5315,1 55309U 23010AS  23307.58994474 -.00000012  00000-0  68095-5 0  9990,2 55309  70.0006   5.6465 0002932 271.4048  88.6775 14.98334252 45387,6950.18,96.107,574.083,570.007,0.0
55309.0,STARLINK-5315,PAYLOAD,2023-11-04 04:34:44,14.98328667,0.0002722,70.0009,4.1331,271.7826,88.3021,2.6023e-05,2.18e-06,0.0,0 STARLINK-5315,1 55309U 23010AS  23308.19078789  .00000218  00000-0  26023-4 0  9991,2 55309  70.0009   4.1331 0002722 271.7826  88.3021 14.98328667 45159,6950.197,96.107,573.954,570.17,0.0
55309.0,STARLINK-5315,PAYLOAD,2023-11-04 14:11:32,14.98332861,0.0002767,70.0008,3.1227,269.2277,90.8565,5.9725e-05,6.2e-06,0.0,0 STARLINK-5315,1 55309U 23010AS  23308.59134395  .00000620  00000-0  59725-4 0  9993,2 55309  70.0008   3.1227 0002767 269.2277  90.8565 14.98332861 45536,6950.184,96.107,573.972,570.126,0.0
55309.0,STARLINK-5315,PAYLOAD,2023-11-04 20:36:04,14.98330081,0.0002744,70.0008,2.4494,269.52,90.5644,3.4867e-05,3.23e-06,0.0,0 STARLINK-5315,1 55309U 23010AS  23308.85838607  .00000323  00000-0  34867-4 0  9999,2 55309  70.0008   2.4494 0002744 269.5200  90.5644 14.98330081 45579,6950.193,96.107,573.965,570.151,0.0
55309.0,STARLINK-5315,PAYLOAD,2023-11-05 04:36:44,14.98335382,0.0002787,70.0006,1.6071,272.7944,87.2896,2.2695e-05,1.78e-06,0.0,0 STARLINK-5315,1 55309U 23010AS  23309.19218255  .00000178  00000-0  22695-4 0  9992,2 55309  70.0006   1.6071 0002787 272.7944  87.2896 14.98335382 45309,6950.176,96.107,573.978,570.104,0.0
55309.0,STARLINK-5315,PAYLOAD,2023-11-05 12:37:24,14.98340218,0.000272,70.0008,0.7657,272.5104,87.5744,7.617e-05,8.16e-06,0.0,0 STARLINK-5315,1 55309U 23010AS  23309.52597642  .00000816  00000-0  76170-4 0  9995,2 55309  70.0008   0.7657 0002720 272.5104  87.5744 14.98340218 45673,6950.161,96.106,573.917,570.136,0.0
55309.0,STARLINK-5315,PAYLOAD,2023-11-05 20:38:04,14.98343211,0.0002677,70.0008,359.9237,276.6937,83.3917,-4.7552e-05,-6.6e-06,0.0,0 STARLINK-5315,1 55309U 23010AS  23309.85977562 -.00000660  00000-0 -47552-4 0  9995,2 55309  70.0008 359.9237 0002677 276.6937  83.3917 14.98343211 45724,6950.152,96.106,573.878,570.156,0.0
